STARLINK-1620
1 26149C 20057AJ  21325.09309692  .00003329  00000-0  22293-3 0  3250
2 26149  53.0518 142.8173 0002034  64.7194 316.5824 15.06418880    15
